STARLINK-30449          
1 57903U 23146N   26189.75577074  .00003781  00000+0  14673-3 0  9990
2 57903  43.0041 350.3128 0001241 254.7998 105.2717 15.27606928154517
STARLINK-30466          
1 57904U 23146P   26189.72253579  .00000117  00000+0  13759-4 0  9994
2 57904  43.0010 350.9326 0000669 277.0948  82.9827 15.27576717154500
STARLINK-30428          
1 57906U 23146R   26189.92126966  .00007487  00000+0  28154-3 0  9998
2 57906  43.0017 349.8375 0000865 262.0707  98.0047 15.27555046154532
STARLINK-30482          
1 57907U 23146S   26189.73666516 -.00000165  00000+0  35252-5 0  9994
2 57907  42.9931 351.0296 0000851  97.8298 262.2650 15.27589590154511
STARLINK-30464          
1 57908U 23146T   26189.79898689 -.00000664  00000+0 -14589-4 0  9993
2 57908  43.0007 354.0345 0001168 175.3203 184.7660 15.27585323154470
STARLINK-30463          
1 57909U 23146U   26189.74436541  .00000895  00000+0  42051-4 0  9993
2 57909  43.0024 351.0862 0001741 287.4626  72.6036 15.27586298154500
STARLINK-30453          
1 57910U 23146V   26189.92432176  .00001052  00000+0  47724-4 0  9993
2 57910  43.0025 346.4598 0001407 285.3553  74.7143 15.27586032154577
STARLINK-30478          
1 57911U 23146W   26189.75318600  .00004809  00000+0  18388-3 0  9996
2 57911  43.0015 350.2918 0000809 176.4124 183.6734 15.27627702155572
STARLINK-30477          
1 57912U 23146X   26189.88320230 -.00000719  00000+0 -16574-4 0  9997
2 57912  43.0062 346.1513 0001699 294.1533  65.9141 15.27592795155634
STARLINK-30450          
1 57913U 23147A   26189.80058124  .00000643  00000+0  32879-4 0  9991
2 57913  43.0057   0.9630 0001788 246.7667 113.2997 15.27591312155128
STARLINK-30483          
1 57914U 23147B   26189.55336947  .00004644  00000+0  17824-3 0  9993
2 57914  42.9998 217.0549 0001328 277.6891  82.3810 15.27570461156799
STARLINK-30454          
1 57915U 23147C   26189.74291564 -.00002754  00000+0 -90508-4 0  9993
2 57915  43.0058   1.3873 0001578 275.1821  84.8851 15.27605326155112
STARLINK-30501          
1 57917U 23147E   26189.74547858  .00002676  00000+0  10668-3 0  9994
2 57917  43.0016   1.4032 0000244 322.3366  37.7468 15.27587447155130
STARLINK-30499          
1 57918U 23147F   26189.07779532  .00000037  00000+0  10857-4 0  9997
2 57918  43.0024 220.3331 0001559 263.8327  96.2347 15.27578100156740
STARLINK-30496          
1 57919U 23147G   26189.82242404  .00009859  00000+0  36704-3 0  9993
2 57919  42.9959   1.1157 0001482 145.9224 214.1723 15.27602755155155
STARLINK-30485          
1 57920U 23147H   26189.76089836  .00006196  00000+0  23441-3 0  9991
2 57920  43.0021   1.5208 0001673 248.8686 111.1987 15.27594087155142
STARLINK-30492          
1 57921U 23147J   26189.76731185  .00001869  00000+0  77381-4 0  9998
2 57921  42.9990   1.5666 0000919 265.0080  95.0667 15.27588817155111
STARLINK-30440          
1 57923U 23147L   26189.52505622  .00001516  00000+0  64594-4 0  9990
2 57923  43.0021   3.1802 0001162 274.8457  85.2262 15.27578615155103
STARLINK-30487          
1 57924U 23147M   26189.77068067  .00002905  00000+0  11502-3 0  9998
2 57924  43.0016   4.9744 0001625 259.1235 100.9434 15.27585375155103
STARLINK-30452          
1 57925U 23147N   26189.52761966 -.00000048  00000+0  77788-5 0  9997
2 57925  43.0090   3.2004 0001498 226.0955 133.9773 15.27590584155073
STARLINK-30468          
1 57926U 23147P   26189.22317863  .00001582  00000+0  66990-4 0  9993
2 57926  43.0064   7.7727 0001545 288.3989  71.6694 15.27584236154994
STARLINK-30448          
1 57928U 23147R   26189.82578831  .00012320  00000+0  45725-3 0  9999
2 57928  43.0011   4.5452 0000461 324.0475  36.0345 15.27521986155084
STARLINK-30476          
1 57930U 23147T   26189.91668981  .00223605  00000+0  70571-3 0  9995
2 57930  42.9913 272.8880 0005961 104.2718  99.1771 15.89910728  6014
STARLINK-30488          
1 57931U 23147U   26189.50270441  .00001059  00000+0  48066-4 0  9993
2 57931  43.0014   6.4167 0005689 129.5467 230.5888 15.27586201155063
STARLINK-30471          
1 57932U 23147V   26189.79672695  .00001635  00000+0  68910-4 0  9992
2 57932  43.0020   0.9257 0001249 244.5578 115.5145 15.27592283155121
STARLINK-30461          
1 57933U 23147W   26189.79288157  .00007518  00000+0  28240-3 0  9996
2 57933  42.9991   0.8975 0001266 258.1568 101.9141 15.27584269155122
STARLINK-30712          
1 57935U 23148A   26189.69848059  .00003263  00000+0  10771-3 0  9994
2 57935  53.1595 180.5064 0001173  92.9510 267.1627 15.34382585156974
STARLINK-30716          
1 57936U 23148B   26189.42077019  .00002797  00000+0  10657-3 0  9990
2 57936  53.1580 183.6428 0000910 111.8984 248.2114 15.30182293156905
STARLINK-30400          
1 57937U 23148C   26189.40646198  .00008852  00000+0  27282-3 0  9999
2 57937  53.1573 182.1886 0001086  97.3629 262.7497 15.34398598156927
STARLINK-30710          
1 57938U 23148D   26189.35378230  .00002304  00000+0  79371-4 0  9996
2 57938  53.1594 172.0223 0001497  71.9789 288.1377 15.34375856157051
