OBJECT_NAME,OBJECT_ID,EPOCH,MEAN_MOTION,ECCENTRICITY,INCLINATION,RA_OF_ASC_NODE,ARG_OF_PERICENTER,MEAN_ANOMALY,EPHEMERIS_TYPE,CLASSIFICATION_TYPE,NORAD_CAT_ID,ELEMENT_SET_NO,REV_AT_EPOCH,BSTAR,MEAN_MOTION_DOT,MEAN_MOTION_DDOT
STARLINK-30449,2023-146N,2026-07-08T18:08:18.591936,15.27606928,.00012419,43.0041,350.3128,254.7998,105.2717,0,U,57903,999,15451,.14672845E-3,.3781E-4,0
STARLINK-30466,2023-146P,2026-07-08T17:20:27.092256,15.27576717,.00006693,43.0010,350.9326,277.0948,82.9827,0,U,57904,999,15450,.13759212E-4,.117E-5,0
STARLINK-30428,2023-146R,2026-07-08T22:06:37.698624,15.27555046,.00008655,43.0017,349.8375,262.0707,98.0047,0,U,57906,999,15453,.2815435E-3,.7487E-4,0
STARLINK-30482,2023-146S,2026-07-08T17:40:47.869824,15.27589590,.00008512,42.9931,351.0296,97.8298,262.2650,0,U,57907,999,15451,.3525156E-5,-.165E-5,0
STARLINK-30464,2023-146T,2026-07-08T19:10:32.467296,15.27585323,.00011689,43.0007,354.0345,175.3203,184.7660,0,U,57908,999,15447,-.14589383E-4,-.664E-5,0
STARLINK-30463,2023-146U,2026-07-08T17:51:53.171424,15.27586298,.00017411,43.0024,351.0862,287.4626,72.6036,0,U,57909,999,15450,.42051255E-4,.895E-5,0
STARLINK-30453,2023-146V,2026-07-08T22:11:01.400064,15.27586032,.00014075,43.0025,346.4598,285.3553,74.7143,0,U,57910,999,15457,.47724493E-4,.1052E-4,0
STARLINK-30478,2023-146W,2026-07-08T18:04:35.270400,15.27627702,.00008092,43.0015,350.2918,176.4124,183.6734,0,U,57911,999,15557,.18388207E-3,.4809E-4,0
STARLINK-30477,2023-146X,2026-07-08T21:11:48.678720,15.27592795,.00016991,43.0062,346.1513,294.1533,65.9141,0,U,57912,999,15563,-.16574142E-4,-.719E-5,0
STARLINK-30450,2023-147A,2026-07-08T19:12:50.219136,15.27591312,.00017883,43.0057,0.9630,246.7667,113.2997,0,U,57913,999,15512,.32879397E-4,.643E-5,0
STARLINK-30483,2023-147B,2026-07-08T13:16:51.122208,15.27570461,.00013283,42.9998,217.0549,277.6891,82.3810,0,U,57914,999,15679,.17823765E-3,.4644E-4,0
STARLINK-30454,2023-147C,2026-07-08T17:49:47.911296,15.27605326,.00015786,43.0058,1.3873,275.1821,84.8851,0,U,57915,999,15511,-.90507696E-4,-.2754E-4,0
STARLINK-30501,2023-147E,2026-07-08T17:53:29.349312,15.27587447,.00002447,43.0016,1.4032,322.3366,37.7468,0,U,57917,999,15513,.10668416E-3,.2676E-4,0
STARLINK-30499,2023-147F,2026-07-08T01:52:01.515648,15.27578100,.00015593,43.0024,220.3331,263.8327,96.2347,0,U,57918,999,15674,.10857485E-4,.37E-6,0
STARLINK-30496,2023-147G,2026-07-08T19:44:17.437056,15.27602755,.00014829,42.9959,1.1157,145.9224,214.1723,0,U,57919,999,15515,.36704369E-3,.9859E-4,0
STARLINK-30485,2023-147H,2026-07-08T18:15:41.618304,15.27594087,.00016738,43.0021,1.5208,248.8686,111.1987,0,U,57920,999,15514,.23441073E-3,.6196E-4,0
STARLINK-30492,2023-147J,2026-07-08T18:24:55.743840,15.27588817,.00009191,42.9990,1.5666,265.0080,95.0667,0,U,57921,999,15511,.77380603E-4,.1869E-4,0
STARLINK-30440,2023-147L,2026-07-08T12:36:04.857408,15.27578615,.00011627,43.0021,3.1802,274.8457,85.2262,0,U,57923,999,15510,.64594284E-4,.1516E-4,0
STARLINK-30487,2023-147M,2026-07-08T18:29:46.809888,15.27585375,.00016254,43.0016,4.9744,259.1235,100.9434,0,U,57924,999,15510,.11502271E-3,.2905E-4,0
STARLINK-30452,2023-147N,2026-07-08T12:39:46.338624,15.27590584,.00014983,43.0090,3.2004,226.0955,133.9773,0,U,57925,999,15507,.7778834E-5,-.48E-6,0
STARLINK-30468,2023-147P,2026-07-08T05:21:22.633632,15.27584236,.00015452,43.0064,7.7727,288.3989,71.6694,0,U,57926,999,15499,.66989755E-4,.1582E-4,0
STARLINK-30448,2023-147R,2026-07-08T19:49:08.109984,15.27521986,.00004619,43.0011,4.5452,324.0475,36.0345,0,U,57928,999,15508,.4572522E-3,.1232E-3,0
STARLINK-30476,2023-147T,2026-07-08T22:00:01.999584,15.89910728,.00059613,42.9913,272.8880,104.2718,99.1771,0,U,57930,999,601,.70570719E-3,.223605E-2,0
STARLINK-30488,2023-147U,2026-07-08T12:03:53.661024,15.27586201,.00056895,43.0014,6.4167,129.5467,230.5888,0,U,57931,999,15506,.48065923E-4,.1059E-4,0
STARLINK-30471,2023-147V,2026-07-08T19:07:17.208480,15.27592283,.00012493,43.0020,0.9257,244.5578,115.5145,0,U,57932,999,15512,.68909969E-4,.1635E-4,0
STARLINK-30461,2023-147W,2026-07-08T19:01:44.967648,15.27584269,.00012669,42.9991,0.8975,258.1568,101.9141,0,U,57933,999,15512,.28240236E-3,.7518E-4,0
STARLINK-30712,2023-148A,2026-07-08T16:45:48.722976,15.34382585,.00011739,53.1595,180.5064,92.9510,267.1627,0,U,57935,999,15697,.10770793E-3,.3263E-4,0
STARLINK-30716,2023-148B,2026-07-08T10:05:54.544416,15.30182293,.00009106,53.1580,183.6428,111.8984,248.2114,0,U,57936,999,15690,.1065672E-3,.2797E-4,0
STARLINK-30400,2023-148C,2026-07-08T09:45:18.315072,15.34398598,.00010867,53.1573,182.1886,97.3629,262.7497,0,U,57937,999,15692,.27282114E-3,.8852E-4,0
STARLINK-30710,2023-148D,2026-07-08T08:29:26.790720,15.34375856,.00014971,53.1594,172.0223,71.9789,288.1377,0,U,57938,999,15705,.79370799E-4,.2304E-4,0
